{
    "links": {
        "self": "http://www.neowsapp.com/rest/v1/neo/3163757?api_key=iIulBulltgU6a56xZRHN4H3l9WmuAYTsLGpBGhQ2"
    },
    "id": "3163757",
    "neo_reference_id": "3163757",
    "name": "(2003 UQ12)",
    "designation": "2003 UQ12",
    "nasa_jpl_url": "http://ssd.jpl.nasa.gov/sbdb.cgi?sstr=3163757",
    "absolute_magnitude_h": 24.9,
    "estimated_diameter": {
        "kilometers": {
            "estimated_diameter_min": 0.0278326768,
            "estimated_diameter_max": 0.0622357573
        },
        "meters": {
            "estimated_diameter_min": 27.8326768072,
            "estimated_diameter_max": 62.2357573367
        },
        "miles": {
            "estimated_diameter_min": 0.0172944182,
            "estimated_diameter_max": 0.0386714948
        },
        "feet": {
            "estimated_diameter_min": 91.3145593761,
            "estimated_diameter_max": 204.1855621004
        }
    },
    "is_potentially_hazardous_asteroid": false,
    "close_approach_data": [
        {
            "close_approach_date": "1974-05-11",
            "close_approach_date_full": "1974-May-11 07:45",
            "epoch_date_close_approach": 137490300000,
            "relative_velocity": {
                "kilometers_per_second": "27.4844970714",
                "kilometers_per_hour": "98944.1894568812",
                "miles_per_hour": "61480.071498916"
            },
            "miss_distance": {
                "astronomical": "0.4791351474",
                "lunar": "186.3835723386",
                "kilometers": "71677597.493176038",
                "miles": "44538393.8094958044"
            },
            "orbiting_body": "Earth"
        },
        {
            "close_approach_date": "1976-11-06",
            "close_approach_date_full": "1976-Nov-06 10:02",
            "epoch_date_close_approach": 216122520000,
            "relative_velocity": {
                "kilometers_per_second": "22.8338246986",
                "kilometers_per_hour": "82201.7689151292",
                "miles_per_hour": "51076.9824684035"
            },
            "miss_distance": {
                "astronomical": "0.3100464999",
                "lunar": "120.6080884611",
                "kilometers": "46382295.985995213",
                "miles": "28820622.2956834194"
            },
            "orbiting_body": "Earth"
        },
        {
            "close_approach_date": "2003-10-18",
            "close_approach_date_full": "2003-Oct-18 18:42",
            "epoch_date_close_approach": 1066502520000,
            "relative_velocity": {
                "kilometers_per_second": "13.3759610009",
                "kilometers_per_hour": "48153.4596032285",
                "miles_per_hour": "29920.6871629061"
            },
            "miss_distance": {
                "astronomical": "0.0157356017",
                "lunar": "6.1211490613",
                "kilometers": "2354012.497488379",
                "miles": "1462715.5389184702"
            },
            "orbiting_body": "Earth"
        }
    ],
    "orbital_data": {
        "orbit_id": "11",
        "orbit_determination_date": "2017-04-06 09:13:37",
        "first_observation_date": "2003-10-21",
        "last_observation_date": "2003-10-30",
        "data_arc_in_days": 9,
        "observations_used": 36,
        "orbit_uncertainty": "8",
        "minimum_orbit_intersection": ".00983905",
        "jupiter_tisserand_invariant": "4.010",
        "epoch_osculation": "2452935.5",
        "eccentricity": ".5259581599333227",
        "semi_major_axis": "1.712284811000507",
        "inclination": "5.413927809845793",
        "ascending_node_longitude": "31.83474349822932",
        "orbital_period": "818.3939934376738",
        "perihelion_distance": ".811694642524903",
        "perihelion_argument": "291.3997172651784",
        "aphelion_distance": "2.612874979476111",
        "perihelion_time": "2452888.039089328490",
        "mean_anomaly": "20.87738666064001",
        "mean_motion": ".439885926444567",
        "equinox": "J2000",
        "orbit_class": {
            "orbit_class_type": "APO",
            "orbit_class_description": "Near-Earth asteroid orbits which cross the Earth’s orbit similar to that of 1862 Apollo",
            "orbit_class_range": "a (semi-major axis) > 1.0 AU; q (perihelion) < 1.017 AU"
        }
    },
    "is_sentry_object": false
}